     2.11           N: GPS NAV DATA                         RINEX VERSION / TYPE
teqc  2016Apr1      cors-adm            20161029 00:46:31UTCPGM / RUN BY / DATE
Solaris x86 5.10|AMD64|cc SC5.8 -xarch=amd64|=+|=+          COMMENT
     2.10           N: GPS NAV DATA                         COMMENT
rvacn.e(1404.07)                        2016-10-29T00:35 GMTCOMMENT
This file contains the validated broadcast navigation       COMMENT
messages from the following files:                          COMMENT
aaaa3020.16n, algo302x.16n, amc2302x.16n, bor1302x.16n,     COMMENT
chpi302x.16n, chur302x.16n, coco302x.16n, cord302x.16n,     COMMENT
cro1302x.16n, darw302x.16n, dav1302x.16n, drao302x.16n,     COMMENT
dubo302x.16n, flin302x.16n, glsv302x.16n, gode302x.16n,     COMMENT
gold302x.16n, guam302x.16n, hlfx302x.16n, hob2302x.16n,     COMMENT
hofn302x.16n, hrao302x.16n, iisc302x.16n, joze302x.16n,     COMMENT
kokb302x.16n, lhaz302x.16n, lpgs302x.16n, madr302x.16n,     COMMENT
mas1302x.16n, mate302x.16n, maw1302x.16n, mbar302x.16n,     COMMENT
mcm4302x.16n, nico302x.16n, nlib302x.16n, not1302x.16n,     COMMENT
nrc1302x.16n, nya1302x.16n, nyal302x.16n, ohi3302x.16n,     COMMENT
onsa302x.16n, pert302x.16n, pie1302x.16n, pimo302x.16n,     COMMENT
quin302x.16n, rabt302x.16n, reun302x.16n, reyk302x.16n,     COMMENT
sant302x.16n, sch2302x.16n, stjo302x.16n, suth302x.16n,     COMMENT
syog302x.16n, tidb302x.16n, tow2302x.16n, tro1302x.16n,     COMMENT
tskb302x.16n, ulab302x.16n, vill302x.16n, whit302x.16n,     COMMENT
wsrt302x.16n, wtzr302x.16n, yell302x.16n, zimm302x.16n      COMMENT
    1.2107D-08 -7.4506D-09 -1.1921D-07  5.9605D-08          ION ALPHA
    9.6256D+04 -3.2768D+04 -1.9661D+05  1.9661D+05          ION BETA
   -9.313225746155D-10 1.776356839400D-15    61440     1921 DELTA-UTC: A0,A1,T,W
                                                            END OF HEADER
16 16 10 27 22  0  0.0 1.301569864154D-05 1.705302565824D-12 0.000000000000D+00
    9.900000000000D+01-5.875000000000D+01 3.563719871809D-09-3.091604346370D+00
   -3.077089786530D-06 8.728489628993D-03 1.158751547337D-05 5.153592435837D+03
    4.248000000000D+05-4.284083843231D-08-6.601575842475D-01-7.078051567078D-08
    9.906493881348D-01 1.711250000000D+02 3.833593796569D-01-7.483168846876D-09
   -2.878691337620D-10 1.000000000000D+00 1.920000000000D+03 0.000000000000D+00
    2.000000000000D+00 0.000000000000D+00-1.024454832077D-08 9.900000000000D+01
    4.176180000000D+05 4.000000000000D+00
17 16 10 27 22  0  0.0-2.003032714128D-04 6.821210263297D-13 0.000000000000D+00
    7.800000000000D+01 4.665625000000D+01 3.930878022562D-09 2.208477143206D+00
    2.391636371613D-06 1.135975017678D-02 9.296461939812D-06 5.153763948441D+03
    4.248000000000D+05 7.450580596924D-08 3.589823104942D-01-2.477318048477D-07
    9.781767753433D-01 2.055937500000D+02-1.917151786119D+00-7.643532669530D-09
    5.264505002050D-10 1.000000000000D+00 1.920000000000D+03 0.000000000000D+00
    2.000000000000D+00 0.000000000000D+00-1.071020960808D-08 7.800000000000D+01
    4.176180000000D+05 4.000000000000D+00
18 16 10 27 22  0  0.0 5.708271637559D-04 3.410605131648D-12 0.000000000000D+00
    5.100000000000D+01-4.315625000000D+01 5.140928426018D-09-2.493207004354D+00
   -2.320855855942D-06 1.726596616209D-02 1.019798219204D-05 5.153728675842D+03
    4.248000000000D+05 2.570450305939D-07 2.369735726605D+00 5.215406417847D-08
    9.252421555010D-01 1.575312500000D+02-1.853757754051D+00-8.030691653399D-09
   -1.810789712374D-10 1.000000000000D+00 1.920000000000D+03 0.000000000000D+00
    2.000000000000D+00 0.000000000000D+00-1.117587089539D-08 5.100000000000D+01
    4.210380000000D+05 4.000000000000D+00
19 16 10 27 22  0  0.0-5.210321396589D-04 5.684341886081D-13 0.000000000000D+00
    4.500000000000D+01 5.546875000000D+01 4.119100148483D-09-9.266049470782D-01
    3.201887011528D-06 1.036318531260D-02 8.352100849152D-06 5.153635208130D+03
    4.248000000000D+05 1.080334186554D-07 4.073265538031D-01 1.601874828339D-07
    9.753072966408D-01 2.242812500000D+02 8.812519191997D-01-7.964974630307D-09
    5.257361847366D-10 1.000000000000D+00 1.920000000000D+03 0.000000000000D+00
    2.000000000000D+00 0.000000000000D+00-1.490116119385D-08 4.500000000000D+01
    4.176180000000D+05 4.000000000000D+00
20 16 10 27 22  0  0.0 4.430133849382D-04 1.932676241267D-12 0.000000000000D+00
    8.400000000000D+01-5.337500000000D+01 5.289148885710D-09 1.362496086734D+00
   -2.810731530190D-06 4.740753211081D-03 1.002475619316D-05 5.153601886749D+03
    4.248000000000D+05-7.078051567078D-08 2.318134745308D+00-8.195638656616D-08
    9.265018391491D-01 1.700312500000D+02 1.470715561366D+00-8.383206337051D-09
   -3.167989102319D-10 1.000000000000D+00 1.920000000000D+03 0.000000000000D+00
    2.000000000000D+00 0.000000000000D+00-8.381903171539D-09 8.400000000000D+01
    4.176180000000D+05 4.000000000000D+00
21 16 10 27 22  0  0.0-5.329190753400D-04 3.410605131648D-13 0.000000000000D+00
    8.100000000000D+01-1.275000000000D+01 5.385224316209D-09-1.538733737042D+00
   -8.754432201385D-08 2.337121672463D-02 3.349035978317D-06 5.153795494080D+03
    4.248000000000D+05 2.998858690262D-07 1.327927075047D+00 5.010515451431D-07
    9.372689864325D-01 2.972187500000D+02-1.747028811540D+00-8.558213626807D-09
    2.285809498855D-11 1.000000000000D+00 1.920000000000D+03 0.000000000000D+00
    2.000000000000D+00 0.000000000000D+00-9.778887033463D-09 8.100000000000D+01
    4.176180000000D+05 4.000000000000D+00
22 16 10 27 22  0  0.0 2.067582681775D-04-1.057287590811D-11 0.000000000000D+00
    6.600000000000D+01-5.646875000000D+01 5.384152843006D-09 1.719836489659D+00
   -2.950429916382D-06 7.346138707362D-03 1.079589128494D-05 5.153694196701D+03
    4.248000000000D+05-6.332993507385D-08 2.370057315498D+00-2.160668373108D-07
    9.232001237451D-01 1.541250000000D+02-1.852576873411D+00-8.409636009381D-09
   -2.885834492304D-10 1.000000000000D+00 1.920000000000D+03 0.000000000000D+00
    2.000000000000D+00 0.000000000000D+00-1.769512891769D-08 6.600000000000D+01
    4.176180000000D+05 4.000000000000D+00
24 16 10 27 22  0  0.0-2.523884177208D-05-5.684341886081D-13 0.000000000000D+00
    4.500000000000D+01-6.656250000000D+00 5.302006564141D-09 4.178155052700D-01
   -3.278255462646D-07 4.862115602009D-03 2.229586243629D-06 5.153718400955D+03
    4.248000000000D+05 1.303851604462D-08-1.808686772390D+00 3.725290298462D-09
    9.474747769390D-01 3.248125000000D+02 3.937025250047D-01-8.737863967107D-09
   -2.310810540249D-10 1.000000000000D+00 1.920000000000D+03 0.000000000000D+00
    2.000000000000D+00 0.000000000000D+00 2.328306436539D-09 4.500000000000D+01
    4.176180000000D+05 4.000000000000D+00
25 16 10 27 22  0  0.0-2.713957801461D-04-6.821210263297D-12 0.000000000000D+00
    1.800000000000D+01-5.534375000000D+01 3.891947653045D-09-1.678791357610D+00
   -2.870336174965D-06 5.642484058626D-03 1.041032373905D-05 5.153682682037D+03
    4.248000000000D+05 1.061707735062D-07-7.316900358612D-01-8.940696716309D-08
    9.782006165192D-01 1.901875000000D+02 7.706926563169D-01-7.659604506216D-09
   -3.417999494548D-10 1.000000000000D+00 1.920000000000D+03 0.000000000000D+00
    2.000000000000D+00 0.000000000000D+00 5.587935447693D-09 1.800000000000D+01
    4.175400000000D+05 4.000000000000D+00
26 16 10 27 22  0  0.0-4.930682480335D-04-5.343281372916D-12 0.000000000000D+00
    8.800000000000D+01-6.059375000000D+01 4.283749863948D-09-2.038923378348D+00
   -3.112480044365D-06 1.130896504037D-03 1.060403883457D-05 5.153604833603D+03
    4.248000000000D+05 1.862645149231D-09-7.433685723306D-01 3.911554813385D-08
    9.600802665796D-01 1.751875000000D+02-1.836783237623D-01-7.957474317889D-09
   -3.289422731946D-10 1.000000000000D+00 1.920000000000D+03 0.000000000000D+00
    2.000000000000D+00 0.000000000000D+00 7.450580596924D-09 8.800000000000D+01
    4.176180000000D+05 4.000000000000D+00
27 16 10 27 22  0  0.0 1.575900241733D-04 5.115907697473D-12 0.000000000000D+00
    2.900000000000D+01 5.646875000000D+01 4.149815713624D-09 2.278631999975D+00
    2.907589077950D-06 3.872258123010D-03 9.210780262947D-06 5.153654451370D+03
    4.248000000000D+05-1.676380634308D-08 3.082205453200D-01 7.450580596924D-09
    9.731375887095D-01 2.068750000000D+02 3.249108021362D-01-7.899614764949D-09
    4.964492505326D-10 1.000000000000D+00 1.920000000000D+03 0.000000000000D+00
    2.000000000000D+00 0.000000000000D+00 1.396983861923D-09 2.900000000000D+01
    4.176000000000D+05
28 16 10 27 22  0  0.0 5.625439807773D-04 2.955857780762D-12 0.000000000000D+00
    1.190000000000D+02-7.062500000000D+01 3.476216226930D-09 3.107688687388D+00
   -3.535300493240D-06 2.001963579096D-02 1.082755625248D-05 5.153637630463D+03
    4.248000000000D+05 2.216547727585D-07-6.553707597599D-01-2.793967723846D-08
    9.893986999701D-01 1.814687500000D+02-1.606874489161D+00-7.205300129672D-09
   -2.921550265724D-10 1.000000000000D+00 1.920000000000D+03 0.000000000000D+00
    4.000000000000D+00 0.000000000000D+00-1.117587089539D-08 1.190000000000D+02
    4.176180000000D+05 4.000000000000D+00
30 16 10 27 22  0  0.0 1.554531045258D-04 1.136868377216D-12 0.000000000000D+00
    6.200000000000D+01-1.743750000000D+01 5.135213902271D-09-5.479323678110D-01
   -1.037493348122D-06 2.389814122580D-03 2.691522240639D-06 5.153752468109D+03
    4.248000000000D+05 6.705522537231D-08-1.716861354624D+00-1.303851604462D-08
    9.501549555049D-01 3.222187500000D+02-3.120529294296D+00-8.592143611555D-09
   -2.375098932404D-10 1.000000000000D+00 1.920000000000D+03 0.000000000000D+00
    2.000000000000D+00 0.000000000000D+00 3.725290298462D-09 6.200000000000D+01
    4.242060000000D+05 4.000000000000D+00
